CAS-2T & KS-1Q          
1 41847U 16066G   20259.86558016  .00000014  00000-0  13280-4 0  9993
2 41847  98.6453 311.2474 0364867 319.6362  37.8258 14.38090318202416
NAYIF-1 (EO-88)         
1 42017U 17008BX  20260.13489373  .00001183  00000-0  47732-4 0  9998
2 42017  97.3525 326.3495 0006373  17.7284 342.4176 15.26729299199386
MAX VALIER SAT          
1 42778U 17036P   20260.42400019  .00000723  00000-0  33836-4 0  9994
2 42778  97.2965 311.5071 0013724  66.4187 293.8490 15.22762807179579
RADFXSAT (FOX-1B)       
1 43017U 17073E   20260.31895722  .00000336  00000-0  31029-4 0  9991
2 43017  97.7160 169.0304 0258028 114.1254 248.7174 14.79013568152592
FOX-1D (AO-92)          
1 43137U 18004AC  20259.75339818  .00000837  00000-0  37174-4 0  9997
2 43137  97.4391 330.2785 0010827  97.7484 262.4983 15.24278720148801
DIWATA-2B               
1 43678U 18084H   20260.43675606  .00000393  00000-0  44787-4 0  9995
2 43678  97.8933  18.8876 0008645 231.4030 128.6421 14.91653193102585
ES'HAIL 2               
1 43700U 18090A   20260.07841588  .00000132  00000-0  00000+0 0  9998
2 43700   0.0184 163.1368 0001837  38.4969 207.8781  1.00271772  6865
FOX-1CLIFF (AO-95)      
1 43770U 18099N   20259.73084990  .00000296  00000-0  32227-4 0  9993
2 43770  97.6991 329.5089 0013183 253.6666 106.3105 14.95037892 97404
ITASAT 1                
1 43786U 18099AE  20260.17592694 -.00000245  00000-0 -16986-4 0  9995
2 43786  97.7009 330.4303 0013830 245.5561 114.4218 14.95372603 97491
JY1SAT (JO-97)          
1 43803U 18099AX  20259.91182551 -.00000226  00000-0 -15200-4 0  9999
2 43803  97.6968 329.9689 0013816 246.6979 113.2789 14.95558594 97454
PSAT2 (NO-104)          
1 44354U 19036R   20260.02090337  .00006921  00000-0  96601-4 0  9997
2 44354  28.5304 145.1411 0357418 199.3367 159.3347 15.05179909 67468
BRICSAT2 (NO-103)       
1 44355U 19036S   20260.39036203  .00011736  00000-0  15583-3 0  9999
2 44355  28.5310 128.5845 0330400 226.3123 130.9642 15.12099146 67662
JAISAT-1                
1 44419U 19038F   20259.90599146  .00000665  00000-0  41358-4 0  9996
2 44419  97.5477 220.4920 0021513 174.5377 185.6093 15.12910620 66278
DUCHIFAT-3              
1 44854U 19089C   20260.41293853  .00000176  00000-0  20667-4 0  9996
2 44854  36.9655 280.7798 0008007  72.4261 287.7361 14.99124346 41955
RS-44 & BREEZE-KM R/B   
1 44909U 19096E   20259.81594836  .00000041  00000-0  11939-3 0  9994
2 44909  82.5186 295.2761 0217627  15.5535 345.2114 12.79708049 33743
ORBITAL FACTORY 2 (OF-2)
1 45113U 19071C   20260.45894543  .00001387  00000-0  53444-4 0  9997
2 45113  51.6436 283.8343 0013234  27.4113 332.7565 15.33649662 35096
HUSKYSAT-1              
1 45119U 19071J   20259.77356544  .00001059  00000-0  43301-4 0  9997
2 45119  51.6435 286.7583 0012456  21.6839 338.4668 15.33841315 34988
